[{"OBJECT_NAME":"ONEWEB-0622","OBJECT_ID":"2023-004Z","EPOCH":"2026-03-09T21:48:00.263232","MEAN_MOTION":13.11417967,"ECCENTRICITY":0.00020924,"INCLINATION":87.8866,"RA_OF_ASC_NODE":40.7999,"ARG_OF_PERICENTER":62.907,"MEAN_ANOMALY":297.2271,"EPHEMERIS_TYPE":0,"CLASSIFICATION_TYPE":"U","NORAD_CAT_ID":55163,"ELEMENT_SET_NO":999,"REV_AT_EPOCH":15278,"BSTAR":0.0016403885,"MEAN_MOTION_DOT":5.94e-6,"MEAN_MOTION_DDOT":0},{"OBJECT_NAME":"SL-6 R\/B(2)","OBJECT_ID":"1977-068D","EPOCH":"2026-03-09T14:37:44.899680","MEAN_MOTION":1.99799376,"ECCENTRICITY":0.7369041,"INCLINATION":62.2728,"RA_OF_ASC_NODE":330.386,"ARG_OF_PERICENTER":46.8481,"MEAN_ANOMALY":354.6244,"EPHEMERIS_TYPE":0,"CLASSIFICATION_TYPE":"U","NORAD_CAT_ID":10167,"ELEMENT_SET_NO":999,"REV_AT_EPOCH":27882,"BSTAR":0,"MEAN_MOTION_DOT":-1.241e-5,"MEAN_MOTION_DDOT":0}]
